{"type": "FeatureCollection", "features": [ {"type": "Feature", "properties": {"norad_id": 34963, "name": "COSMOS 2251 DEB", "group": "cosmos-2251-debris", "lat": -3.2459143746160444, "lon": 20.20971172609683, "alt_km": 748.1900247002914, "timestamp": "2025-12-24T07:45:06.594435+00:00", "meta": {"OBJECT_NAME": "COSMOS 2251 DEB", "OBJECT_ID": "1993-036AES", "EPOCH": "2025-12-22T19:22:05.292480", "MEAN_MOTION": 14.51171721, "ECCENTRICITY": 0.00421225, "INCLINATION": 74.1708, "RA_OF_ASC_NODE": 23.9592, "ARG_OF_PERICENTER": 218.4859, "MEAN_ANOMALY": 141.3297, "EPHEMERIS_TYPE": 0, "CLASSIFICATION_TYPE": "U", "NORAD_CAT_ID": 34963, "ELEMENT_SET_NO": 999, "REV_AT_EPOCH": 86947, "BSTAR": 0.0011861563, "MEAN_MOTION_DOT": 4.738e-05, "MEAN_MOTION_DDOT": 0}, "tle": {"line1": "1 34963U 93036AES 25356.80700570  .00004738  00000+0  11862-2 0  9995", "line2": "2 34963  74.1708  23.9592 0042122 218.4859 141.3297 14.51171721869473"}}, "geometry": {"type": "Point", "coordinates": [20.20971172609683, -3.2459143746160444]}}, {"type": "Feature", "properties": {"norad_id": 34964, "name": "COSMOS 2251 DEB", "group": "cosmos-2251-debris", "lat": 64.09611465385782, "lon": 3.9758032145010413, "alt_km": 945.5775389467381, "timestamp": "2025-12-24T07:45:06.594445+00:00", "meta": {"OBJECT_NAME": "COSMOS 2251 DEB", "OBJECT_ID": "1993-036AET", "EPOCH": "2025-12-18T07:25:04.519776", "MEAN_MOTION": 14.00628567, "ECCENTRICITY": 0.02123167, "INCLINATION": 73.9712, "RA_OF_ASC_NODE": 338.1457, "ARG_OF_PERICENTER": 195.4091, "MEAN_ANOMALY": 164.0515, "EPHEMERIS_TYPE": 0, "CLASSIFICATION_TYPE": "U", "NORAD_CAT_ID": 34964, "ELEMENT_SET_NO": 999, "REV_AT_EPOCH": 84556, "BSTAR": 0.00089791859, "MEAN_MOTION_DOT": 1.6e-05, "MEAN_MOTION_DDOT": 0}, "tle": {"line1": "1 34964U 93036AET 25352.30908009  .00001600  00000+0  89792-3 0  9997", "line2": "2 34964  73.9712 338.1457 0212316 195.4091 164.0515 14.00628567845561"}}, "geometry": {"type": "Point", "coordinates": [3.9758032145010413, 64.09611465385782]}}, {"type": "Feature", "properties": {"norad_id": 34965, "name": "COSMOS 2251 DEB", "group": "cosmos-2251-debris", "lat": -14.213565521350516, "lon": 102.62935748850099, "alt_km": 741.3161447030361, "timestamp": "2025-12-24T07:45:06.594455+00:00", "meta": {"OBJECT_NAME": "COSMOS 2251 DEB", "OBJECT_ID": "1993-036AEU", "EPOCH": "2025-12-23T13:35:23.542944", "MEAN_MOTION": 14.48733014, "ECCENTRICITY": 0.00264239, "INCLINATION": 74.0518, "RA_OF_ASC_NODE": 108.1991, "ARG_OF_PERICENTER": 234.0681, "MEAN_ANOMALY": 125.8027, "EPHEMERIS_TYPE": 0, "CLASSIFICATION_TYPE": "U", "NORAD_CAT_ID": 34965, "ELEMENT_SET_NO": 999, "REV_AT_EPOCH": 87270, "BSTAR": 0.00031518339, "MEAN_MOTION_DOT": 1.166e-05, "MEAN_MOTION_DDOT": 0}, "tle": {"line1": "1 34965U 93036AEU 25357.56624471  .00001166  00000+0  31518-3 0  9999", "line2": "2 34965  74.0518 108.1991 0026423 234.0681 125.8027 14.48733014872708"}}, "geometry": {"type": "Point", "coordinates": [102.62935748850099, -14.213565521350516]}}, {"type": "Feature", "properties": {"norad_id": 34967, "name": "COSMOS 2251 DEB", "group": "cosmos-2251-debris", "lat": 66.4405224624684, "lon": -86.57050701422314, "alt_km": 722.3844528728187, "timestamp": "2025-12-24T07:45:06.594465+00:00", "meta": {"OBJECT_NAME": "COSMOS 2251 DEB", "OBJECT_ID": "1993-036AEW", "EPOCH": "2025-12-13T00:27:20.673792", "MEAN_MOTION": 14.44269018, "ECCENTRICITY": 0.00380101, "INCLINATION": 73.9933, "RA_OF_ASC_NODE": 253.3374, "ARG_OF_PERICENTER": 39.5345, "MEAN_ANOMALY": 320.8573, "EPHEMERIS_TYPE": 0, "CLASSIFICATION_TYPE": "U", "NORAD_CAT_ID": 34967, "ELEMENT_SET_NO": 999, "REV_AT_EPOCH": 64961, "BSTAR": 0.0011451852, "MEAN_MOTION_DOT": 3.946e-05, "MEAN_MOTION_DDOT": 0}, "tle": {"line1": "1 34967U 93036AEW 25347.01898928  .00003946  00000+0  11452-2 0  9992", "line2": "2 34967  73.9933 253.3374 0038010  39.5345 320.8573 14.44269018649616"}}, "geometry": {"type": "Point", "coordinates": [-86.57050701422314, 66.4405224624684]}}, {"type": "Feature", "properties": {"norad_id": 34968, "name": "COSMOS 2251 DEB", "group": "cosmos-2251-debris", "lat": -15.790914170199732, "lon": 49.63319345544166, "alt_km": 750.4984178903651, "timestamp": "2025-12-24T07:45:06.594474+00:00", "meta": {"OBJECT_NAME": "COSMOS 2251 DEB", "OBJECT_ID": "1993-036AEX", "EPOCH": "2025-12-23T01:14:18.762720", "MEAN_MOTION": 14.59422462, "ECCENTRICITY": 0.00871055, "INCLINATION": 74.0381, "RA_OF_ASC_NODE": 227.4133, "ARG_OF_PERICENTER": 345.2402, "MEAN_ANOMALY": 14.6221, "EPHEMERIS_TYPE": 0, "CLASSIFICATION_TYPE": "U", "NORAD_CAT_ID": 34968, "ELEMENT_SET_NO": 999, "REV_AT_EPOCH": 88628, "BSTAR": 0.00012972503, "MEAN_MOTION_DOT": 6.15e-06, "MEAN_MOTION_DDOT": 0}, "tle": {"line1": "1 34968U 93036AEX 25357.05160605  .00000615  00000+0  12973-3 0  9992", "line2": "2 34968  74.0381 227.4133 0087105 345.2402  14.6221 14.59422462886285"}}, "geometry": {"type": "Point", "coordinates": [49.63319345544166, -15.790914170199732]}}, {"type": "Feature", "properties": {"norad_id": 34969, "name": "COSMOS 2251 DEB", "group": "cosmos-2251-debris", "lat": -53.955469048704074, "lon": -154.82330123798846, "alt_km": 803.908099871237, "timestamp": "2025-12-24T07:45:06.594484+00:00", "meta": {"OBJECT_NAME": "COSMOS 2251 DEB", "OBJECT_ID": "1993-036AEY", "EPOCH": "2025-12-21T18:18:22.827744", "MEAN_MOTION": 14.32268431, "ECCENTRICITY": 0.00731947, "INCLINATION": 74.0139, "RA_OF_ASC_NODE": 6.6546, "ARG_OF_PERICENTER": 137.5862, "MEAN_ANOMALY": 223.0979, "EPHEMERIS_TYPE": 0, "CLASSIFICATION_TYPE": "U", "NORAD_CAT_ID": 34969, "ELEMENT_SET_NO": 999, "REV_AT_EPOCH": 65266, "BSTAR": 0.0001981389, "MEAN_MOTION_DOT": 5.25e-06, "MEAN_MOTION_DDOT": 0}, "tle": {"line1": "1 34969U 93036AEY 25355.76276421  .00000525  00000+0  19814-3 0  9994", "line2": "2 34969  74.0139   6.6546 0073194 137.5862 223.0979 14.32268431652661"}}, "geometry": {"type": "Point", "coordinates": [-154.82330123798846, -53.955469048704074]}}, {"type": "Feature", "properties": {"norad_id": 34971, "name": "COSMOS 2251 DEB", "group": "cosmos-2251-debris", "lat": 70.24826613279838, "lon": 29.834692868998154, "alt_km": 655.1751237669441, "timestamp": "2025-12-24T07:45:06.594495+00:00", "meta": {"OBJECT_NAME": "COSMOS 2251 DEB", "OBJECT_ID": "1993-036AFA", "EPOCH": "2025-12-18T11:38:13.277760", "MEAN_MOTION": 14.55642375, "ECCENTRICITY": 0.00693978, "INCLINATION": 73.9787, "RA_OF_ASC_NODE": 274.0839, "ARG_OF_PERICENTER": 138.3039, "MEAN_ANOMALY": 342.538, "EPHEMERIS_TYPE": 0, "CLASSIFICATION_TYPE": "U", "NORAD_CAT_ID": 34971, "ELEMENT_SET_NO": 999, "REV_AT_EPOCH": 66256, "BSTAR": 0.00012982435, "MEAN_MOTION_DOT": 5.55e-06, "MEAN_MOTION_DDOT": 0}, "tle": {"line1": "1 34971U 93036AFA 25352.48487590  .00000555  00000+0  12982-3 0  9996", "line2": "2 34971  73.9787 274.0839 0069397 138.3039 342.5380 14.55642375662563"}}, "geometry": {"type": "Point", "coordinates": [29.834692868998154, 70.24826613279838]}}, {"type": "Feature", "properties": {"norad_id": 34972, "name": "COSMOS 2251 DEB", "group": "cosmos-2251-debris", "lat": -6.042606074303363, "lon": 25.486698114997743, "alt_km": 677.5652895962221, "timestamp": "2025-12-24T07:45:06.594532+00:00", "meta": {"OBJECT_NAME": "COSMOS 2251 DEB", "OBJECT_ID": "1993-036AFB", "EPOCH": "2025-12-21T13:38:31.765344", "MEAN_MOTION": 14.73012342, "ECCENTRICITY": 0.00329831, "INCLINATION": 73.9871, "RA_OF_ASC_NODE": 32.6088, "ARG_OF_PERICENTER": 189.946, "MEAN_ANOMALY": 322.6145, "EPHEMERIS_TYPE": 0, "CLASSIFICATION_TYPE": "U", "NORAD_CAT_ID": 34972, "ELEMENT_SET_NO": 999, "REV_AT_EPOCH": 87780, "BSTAR": 0.0011476529, "MEAN_MOTION_DOT": 7.412e-05, "MEAN_MOTION_DDOT": 0}, "tle": {"line1": "1 34972U 93036AFB 25355.56842321  .00007412  00000+0  11477-2 0  9992", "line2": "2 34972  73.9871  32.6088 0032983 189.9460 322.6145 14.73012342877801"}}, "geometry": {"type": "Point", "coordinates": [25.486698114997743, -6.042606074303363]}}, {"type": "Feature", "properties": {"norad_id": 34976, "name": "COSMOS 2251 DEB", "group": "cosmos-2251-debris", "lat": -57.79997044555108, "lon": 130.57427157646688, "alt_km": 643.8287158755911, "timestamp": "2025-12-24T07:45:06.594542+00:00", "meta": {"OBJECT_NAME": "COSMOS 2251 DEB", "OBJECT_ID": "1993-036AFF", "EPOCH": "2025-12-23T21:11:31.112736", "MEAN_MOTION": 14.76798251, "ECCENTRICITY": 0.00478515, "INCLINATION": 74.0582, "RA_OF_ASC_NODE": 284.4407, "ARG_OF_PERICENTER": 328.8479, "MEAN_ANOMALY": 95.0445, "EPHEMERIS_TYPE": 0, "CLASSIFICATION_TYPE": "U", "NORAD_CAT_ID": 34976, "ELEMENT_SET_NO": 999, "REV_AT_EPOCH": 88438, "BSTAR": 0.0015619272, "MEAN_MOTION_DOT": 0.00011151, "MEAN_MOTION_DDOT": 0}, "tle": {"line1": "1 34976U 93036AFF 25357.88299899  .00011151  00000+0  15619-2 0  9996", "line2": "2 34976  74.0582 284.4407 0047851 328.8479  95.0445 14.76798251884380"}}, "geometry": {"type": "Point", "coordinates": [130.57427157646688, -57.79997044555108]}}, {"type": "Feature", "properties": {"norad_id": 34979, "name": "COSMOS 2251 DEB", "group": "cosmos-2251-debris", "lat": 43.95451402035011, "lon": -99.50942335893446, "alt_km": 624.348788265741, "timestamp": "2025-12-24T07:45:06.594553+00:00", "meta": {"OBJECT_NAME": "COSMOS 2251 DEB", "OBJECT_ID": "1993-036AFJ", "EPOCH": "2025-12-23T10:26:53.223072", "MEAN_MOTION": 14.79527308, "ECCENTRICITY": 0.00492013, "INCLINATION": 74.0389, "RA_OF_ASC_NODE": 246.2184, "ARG_OF_PERICENTER": 321.9497, "MEAN_ANOMALY": 37.8206, "EPHEMERIS_TYPE": 0, "CLASSIFICATION_TYPE": "U", "NORAD_CAT_ID": 34979, "ELEMENT_SET_NO": 999, "REV_AT_EPOCH": 88378, "BSTAR": 0.0011005, "MEAN_MOTION_DOT": 8.378e-05, "MEAN_MOTION_DDOT": 0}, "tle": {"line1": "1 34979U 93036AFJ 25357.43533823  .00008378  00000+0  11005-2 0  9990", "line2": "2 34979  74.0389 246.2184 0049201 321.9497  37.8206 14.79527308883789"}}, "geometry": {"type": "Point", "coordinates": [-99.50942335893446, 43.95451402035011]}}]}